OBJECT_NAME,OBJECT_ID,EPOCH,MEAN_MOTION,ECCENTRICITY,INCLINATION,RA_OF_ASC_NODE,ARG_OF_PERICENTER,MEAN_ANOMALY,EPHEMERIS_TYPE,CLASSIFICATION_TYPE,NORAD_CAT_ID,ELEMENT_SET_NO,REV_AT_EPOCH,BSTAR,MEAN_MOTION_DOT,MEAN_MOTION_DDOT
TJS-25,2026-129A,2026-07-09T17:38:46.471776,1.00265980,.0003159,5.9598,330.3086,281.7770,60.4398,0,U,69474,999,28,0,-.355E-5,0
STARLINK-37816,2026-131A,2026-07-09T20:00:01.999008,15.61417242,.0001825,97.2850,212.3724,68.3932,66.4465,0,U,69478,999,564,-.31808E-1,-.2377857E-1,0
STARLINK-37878,2026-131B,2026-07-09T20:00:01.999008,15.69492174,.0001848,97.2852,212.3855,87.4746,82.2974,0,U,69479,999,450,-.1768E-1,-.1814177E-1,0
STARLINK-37817,2026-131C,2026-07-09T20:00:01.999008,15.69415336,.0001942,97.2849,212.4057,93.1161,125.0885,0,U,69480,999,564,-.25341E-1,-.2581408E-1,0
STARLINK-37727,2026-131D,2026-07-09T20:00:01.999008,15.60899722,.0001879,97.2848,212.3777,71.5396,71.9991,0,U,69481,999,564,-.33191E-1,-.2425194E-1,0
STARLINK-37814,2026-131E,2026-07-09T20:00:01.999008,15.68957850,.0001955,97.2848,212.4046,87.7478,128.8279,0,U,69482,999,564,-.25722E-1,-.2572313E-1,0
STARLINK-37869,2026-131F,2026-07-09T20:00:01.999008,15.65510093,.0001686,97.2854,212.3964,63.0102,127.1281,0,U,69483,999,564,-.23025E-1,-.2022912E-1,0
STARLINK-37873,2026-131G,2026-07-09T20:00:01.999008,15.66459542,.0001851,97.2846,212.4012,90.8596,117.1236,0,U,69484,999,564,-.28355E-1,-.2561144E-1,0
STARLINK-37892,2026-131H,2026-07-09T20:00:01.999008,15.67489478,.0001915,97.2849,212.4132,81.0501,155.4232,0,U,69485,999,564,-.25869E-1,-.2452417E-1,0
STARLINK-37893,2026-131J,2026-07-09T20:00:01.999008,15.66811402,.0001891,97.2853,212.4120,85.2429,142.7858,0,U,69486,999,572,-.27316E-1,-.2510411E-1,0
STARLINK-37842,2026-131K,2026-07-09T20:00:01.999008,15.65867266,.0001858,97.2854,212.4001,83.1899,112.3288,0,U,69487,999,564,-.28038E-1,-.2483962E-1,0
STARLINK-37449,2026-131L,2026-07-09T20:00:01.999008,15.67819906,.0001714,97.2847,212.4189,99.8934,149.7084,0,U,69488,999,573,-.27098E-1,-.2583623E-1,0
STARLINK-37831,2026-131M,2026-07-09T20:00:01.999008,15.62151901,.0002136,97.2848,212.3855,76.1874,89.7063,0,U,69489,999,428,-.32476E-1,-.2483047E-1,0
STARLINK-37879,2026-131N,2026-07-09T20:00:01.999008,15.65224394,.0001901,97.2849,212.4053,93.8367,124.0819,0,U,69490,999,564,-.29661E-1,-.255065E-1,0
STARLINK-37856,2026-131P,2026-07-09T20:00:01.999008,15.65549333,.000216,97.2849,212.3987,81.9728,111.1058,0,U,69491,999,570,-.27987E-1,-.2452778E-1,0
STARLINK-37568,2026-131Q,2026-07-09T20:00:01.999008,15.62371498,.0002267,97.2853,212.4046,85.4253,123.0515,0,U,69492,999,573,-.30935E-1,-.2397874E-1,0
STARLINK-37855,2026-131R,2026-07-09T20:00:01.999008,15.74179169,.0001755,97.2847,212.4289,89.8277,181.4024,0,U,69493,999,570,-.20762E-1,-.2588238E-1,0
STARLINK-37854,2026-131S,2026-07-09T20:00:01.999008,15.69193288,.0001928,97.2850,212.4123,97.7377,136.3704,0,U,69494,999,570,-.2546E-1,-.257122E-1,0
STARLINK-37789,2026-131T,2026-07-09T20:00:01.999008,15.64456625,.0002147,97.2851,212.4192,93.1330,151.9706,0,U,69495,999,572,-.28404E-1,-.2391391E-1,0
STARLINK-37839,2026-131U,2026-07-09T20:00:01.999008,15.66107971,.0001922,97.2851,212.4077,94.6440,128.4992,0,U,69496,999,570,-.28278E-1,-.2523846E-1,0
STARLINK-37798,2026-131V,2026-07-09T20:00:01.999008,15.64591390,.0001918,97.2847,212.4238,94.0935,157.6266,0,U,69497,999,570,-.28661E-1,-.2421535E-1,0
STARLINK-37853,2026-131W,2026-07-09T20:00:01.999008,15.75238346,.0000953,97.2840,212.4595,79.0143,260.7080,0,U,69498,999,570,-.9232E-3,-.135942E-2,0
STARLINK-37849,2026-131X,2026-07-09T20:00:01.999008,15.61167281,.0002031,97.2854,212.4141,90.2657,139.9448,0,U,69499,999,572,-.33749E-1,-.2483197E-1,0
STARLINK-37835,2026-131Y,2026-07-09T20:00:01.999008,15.61992133,.0002218,97.2855,212.4124,91.1255,138.0096,0,U,69500,999,461,-.31495E-1,-.2404416E-1,0
STARLINK-37843,2026-131Z,2026-07-09T20:00:01.999008,15.60740421,.0002059,97.2853,212.4095,84.2339,132.8168,0,U,69501,999,570,-.33306E-1,-.2419662E-1,0
STARS-X,2026-132A,2026-07-09T02:46:46.642368,14.99096932,.00139982,97.6882,253.5001,186.7709,173.3327,0,U,69502,999,406,.10806896E-3,.1256E-4,0
PETREL,2026-132B,2026-07-08T21:56:12.162624,14.99175361,.00138719,97.6911,253.3149,189.4627,170.6337,0,U,69503,999,403,.87717966E-4,.101E-4,0
BRO-22,2026-132C,2026-07-09T13:40:53.743008,14.99796310,.0015951,97.6833,253.9635,201.2436,158.8127,0,U,69504,999,413,.6648E-4,.764E-5,0
HORN-L,2026-132D,2026-07-09T12:56:27.312864,15.10822992,.002407,97.6871,254.1456,229.3469,130.5668,0,U,69505,999,414,.16709E-3,.2727E-4,0
VERTECS,2026-132E,2026-07-09T03:34:41.306016,15.00977783,.0015053,97.6832,253.6062,226.9007,133.0959,0,U,69506,999,406,.94203834E-4,.1144E-4,0
