TJS-25                  
1 69474U 26129A   26190.73526009 -.00000355  00000+0  00000+0 0  9992
2 69474   5.9598 330.3086 0003159 281.7770  60.4398  1.00265980   282
STARLINK-37816          
1 69478U 26131A   26190.83335647 -.02377857  00000+0 -31808-1 0  9995
2 69478  97.2850 212.3724 0001825  68.3932  66.4465 15.61417242  5644
STARLINK-37878          
1 69479U 26131B   26190.83335647 -.01814177  00000+0 -17680-1 0  9998
2 69479  97.2852 212.3855 0001848  87.4746  82.2974 15.69492174  4502
STARLINK-37817          
1 69480U 26131C   26190.83335647 -.02581408  00000+0 -25341-1 0  9992
2 69480  97.2849 212.4057 0001942  93.1161 125.0885 15.69415336  5643
STARLINK-37727          
1 69481U 26131D   26190.83335647 -.02425194  00000+0 -33191-1 0  9994
2 69481  97.2848 212.3777 0001879  71.5396  71.9991 15.60899722  5643
STARLINK-37814          
1 69482U 26131E   26190.83335647 -.02572313  00000+0 -25722-1 0  9992
2 69482  97.2848 212.4046 0001955  87.7478 128.8279 15.68957850  5645
STARLINK-37869          
1 69483U 26131F   26190.83335647 -.02022912  00000+0 -23025-1 0  9992
2 69483  97.2854 212.3964 0001686  63.0102 127.1281 15.65510093  5649
STARLINK-37873          
1 69484U 26131G   26190.83335647 -.02561144  00000+0 -28355-1 0  9999
2 69484  97.2846 212.4012 0001851  90.8596 117.1236 15.66459542  5646
STARLINK-37892          
1 69485U 26131H   26190.83335647 -.02452417  00000+0 -25869-1 0  9999
2 69485  97.2849 212.4132 0001915  81.0501 155.4232 15.67489478  5645
STARLINK-37893          
1 69486U 26131J   26190.83335647 -.02510411  00000+0 -27316-1 0  9998
2 69486  97.2853 212.4120 0001891  85.2429 142.7858 15.66811402  5723
STARLINK-37842          
1 69487U 26131K   26190.83335647 -.02483962  00000+0 -28038-1 0  9991
2 69487  97.2854 212.4001 0001858  83.1899 112.3288 15.65867266  5643
STARLINK-37449          
1 69488U 26131L   26190.83335647 -.02583623  00000+0 -27098-1 0  9992
2 69488  97.2847 212.4189 0001714  99.8934 149.7084 15.67819906  5736
STARLINK-37831          
1 69489U 26131M   26190.83335647 -.02483047  00000+0 -32476-1 0  9998
2 69489  97.2848 212.3855 0002136  76.1874  89.7063 15.62151901  4285
STARLINK-37879          
1 69490U 26131N   26190.83335647 -.02550650  00000+0 -29661-1 0  9997
2 69490  97.2849 212.4053 0001901  93.8367 124.0819 15.65224394  5644
STARLINK-37856          
1 69491U 26131P   26190.83335647 -.02452778  00000+0 -27987-1 0  9999
2 69491  97.2849 212.3987 0002160  81.9728 111.1058 15.65549333  5709
STARLINK-37568          
1 69492U 26131Q   26190.83335647 -.02397874  00000+0 -30935-1 0  9992
2 69492  97.2853 212.4046 0002267  85.4253 123.0515 15.62371498  5737
STARLINK-37855          
1 69493U 26131R   26190.83335647 -.02588238  00000+0 -20762-1 0  9996
2 69493  97.2847 212.4289 0001755  89.8277 181.4024 15.74179169  5709
STARLINK-37854          
1 69494U 26131S   26190.83335647 -.02571220  00000+0 -25460-1 0  9990
2 69494  97.2850 212.4123 0001928  97.7377 136.3704 15.69193288  5708
STARLINK-37789          
1 69495U 26131T   26190.83335647 -.02391391  00000+0 -28404-1 0  9991
2 69495  97.2851 212.4192 0002147  93.1330 151.9706 15.64456625  5728
STARLINK-37839          
1 69496U 26131U   26190.83335647 -.02523846  00000+0 -28278-1 0  9993
2 69496  97.2851 212.4077 0001922  94.6440 128.4992 15.66107971  5702
STARLINK-37798          
1 69497U 26131V   26190.83335647 -.02421535  00000+0 -28661-1 0  9992
2 69497  97.2847 212.4238 0001918  94.0935 157.6266 15.64591390  5703
STARLINK-37853          
1 69498U 26131W   26190.83335647 -.00135942  00000+0 -92320-3 0  9990
2 69498  97.2840 212.4595 0000953  79.0143 260.7080 15.75238346  5706
STARLINK-37849          
1 69499U 26131X   26190.83335647 -.02483197  00000+0 -33749-1 0  9999
2 69499  97.2854 212.4141 0002031  90.2657 139.9448 15.61167281  5724
STARLINK-37835          
1 69500U 26131Y   26190.83335647 -.02404416  00000+0 -31495-1 0  9995
2 69500  97.2855 212.4124 0002218  91.1255 138.0096 15.61992133  4618
STARLINK-37843          
1 69501U 26131Z   26190.83335647 -.02419662  00000+0 -33306-1 0  9998
2 69501  97.2853 212.4095 0002059  84.2339 132.8168 15.60740421  5706
STARS-X                 
1 69502U 26132A   26190.11581762  .00001256  00000+0  10807-3 0  9997
2 69502  97.6882 253.5001 0013998 186.7709 173.3327 14.99096932  4066
PETREL                  
1 69503U 26132B   26189.91402966  .00001010  00000+0  87718-4 0  9996
2 69503  97.6911 253.3149 0013871 189.4627 170.6337 14.99175361  4032
BRO-22                  
1 69504U 26132C   26190.57006647  .00000764  00000+0  66480-4 0  9995
2 69504  97.6833 253.9635 0015951 201.2436 158.8127 14.99796310  4133
HORN-L                  
1 69505U 26132D   26190.53920501  .00002727  00000+0  16709-3 0  9995
2 69505  97.6871 254.1456 0024070 229.3469 130.5668 15.10822992  4147
VERTECS                 
1 69506U 26132E   26190.14908919  .00001144  00000+0  94204-4 0  9991
2 69506  97.6832 253.6062 0015053 226.9007 133.0959 15.00977783  4064
